NORAD_CAT_ID,OBJECT_NAME,OBJECT_TYPE,EPOCH,MEAN_MOTION,ECCENTRICITY,INCLINATION,RA_OF_ASC_NODE,ARG_OF_PERICENTER,MEAN_ANOMALY,BSTAR,MEAN_MOTION_DOT,MEAN_MOTION_DDOT,TLE_LINE0,TLE_LINE1,TLE_LINE2,SEMIMAJOR_AXIS,PERIOD,APOGEE,PERIGEE,DECAYED
50813.0,STARLINK-3349,PAYLOAD,2022-10-07 12:07:24,15.08838833,0.0002063,53.2167,6.9439,43.0166,317.0988,0.00023408,3.439e-05,0.0,0 STARLINK-3349,1 50813U 22001L   22280.50514968  .00003439  00000-0  23408-3 0  9993,2 50813  53.2167   6.9439 0002063  43.0166 317.0988 15.08838833 41968,6917.884,95.438,541.1759999999998,538.322,0.0
50813.0,STARLINK-3349,PAYLOAD,2022-10-07 16:53:34,15.08832127,0.0001946,53.2166,6.0517,38.3844,321.7286,8.2796e-05,1.03e-05,0.0,0 STARLINK-3349,1 50813U 22001L   22280.70387341  .00001030  00000-0  82796-4 0  9999,2 50813  53.2166   6.0517 0001946  38.3844 321.7286 15.08832127 43240,6917.904,95.438,541.116,538.423,0.0
50813.0,STARLINK-3349,PAYLOAD,2022-10-08 11:58:12,15.08835161,0.0001949,53.2163,2.483,38.576,321.5371,0.00012007,1.623e-05,0.0,0 STARLINK-3349,1 50813U 22001L   22281.49875603  .00001623  00000-0  12007-3 0  9994,2 50813  53.2163   2.4830 0001949  38.5760 321.5371 15.08835161 42116,6917.895,95.438,541.1080000000002,538.4119999999998,0.0
50813.0,STARLINK-3349,PAYLOAD,2022-10-08 13:33:35,15.08834561,0.0001896999999999,53.2163,2.1854,40.684,319.4293,0.00011002,1.463e-05,0.0,0 STARLINK-3349,1 50813U 22001L   22281.56499669  .00001463  00000-0  11002-3 0  9992,2 50813  53.2163   2.1854 0001897  40.6840 319.4293 15.08834561 42127,6917.897,95.438,541.0740000000002,538.45,0.0
50813.0,STARLINK-3349,PAYLOAD,2022-10-09 03:52:03,15.08842449,0.0002092,53.2162,359.5089,40.2602,319.8545,0.0001485,2.076e-05,0.0,0 STARLINK-3349,1 50813U 22001L   22282.16115579  .00002076  00000-0  14850-3 0  9999,2 50813  53.2162 359.5089 0002092  40.2602 319.8545 15.08842449 43461,6917.873000000001,95.437,541.185,538.2909999999998,0.0
50813.0,STARLINK-3349,PAYLOAD,2022-10-09 11:48:59,15.08845694,0.0002052,53.2164,358.0227,35.1329,324.9799,0.00030965,4.644e-05,0.0,0 STARLINK-3349,1 50813U 22001L   22282.49235598  .00004644  00000-0  30965-3 0  9997,2 50813  53.2164 358.0227 0002052  35.1329 324.9799 15.08845694 42266,6917.863,95.437,541.148,538.308,0.0
50813.0,STARLINK-3349,PAYLOAD,2022-10-09 13:24:22,15.08847098,0.0001989,53.2168,357.7241,39.408,320.7057,0.00031931,4.798e-05,0.0,0 STARLINK-3349,1 50813U 22001L   22282.55859536  .00004798  00000-0  31931-3 0  9992,2 50813  53.2168 357.7241 0001989  39.4080 320.7057 15.08847098 42273,6917.859,95.437,541.1,538.3480000000002,0.0
50813.0,STARLINK-3349,PAYLOAD,2022-10-10 11:39:46,15.08840145,0.0002049,53.2167,353.5617,37.3379,322.7755,0.00010421,1.371e-05,0.0,0 STARLINK-3349,1 50813U 22001L   22283.48595570  .00001371  00000-0  10421-3 0  9995,2 50813  53.2167 353.5617 0002049  37.3379 322.7755 15.08840145 43666,6917.88,95.438,541.1619999999998,538.327,0.0
50813.0,STARLINK-3349,PAYLOAD,2022-10-10 13:15:09,15.08838452,0.0002004,53.2166,353.2641,39.7316,320.3822,0.00013946,1.932e-05,0.0,0 STARLINK-3349,1 50813U 22001L   22283.55219649  .00001932  00000-0  13946-3 0  9991,2 50813  53.2166 353.2641 0002004  39.7316 320.3822 15.08838452 42427,6917.885,95.438,541.136,538.364,0.0
50813.0,STARLINK-3349,PAYLOAD,2022-10-11 05:09:04,15.08775934,0.0002682,53.2166,350.2902,348.9805,11.1128,-0.00083444,-0.00013521,0.0,0 STARLINK-3349,1 50813U 22001L   22284.21463172 -.00013521  00000-0 -83444-3 0  9996,2 50813  53.2166 350.2902 0002682 348.9805  11.1128 15.08775934 43772,6918.076,95.442,541.797,538.086,0.0
50813.0,STARLINK-3349,PAYLOAD,2022-10-11 11:30:36,15.08798414,0.0001388,53.2166,349.1013,51.7312,308.3805,-0.00043645,-7.219e-05,0.0,0 STARLINK-3349,1 50813U 22001L   22284.47958974 -.00007219  00000-0 -43645-3 0  9999,2 50813  53.2166 349.1013 0001388  51.7312 308.3805 15.08798414 42563,6918.0080000000025,95.44,540.8330000000002,538.9119999999998,0.0
50813.0,STARLINK-3349,PAYLOAD,2022-10-11 13:05:59,15.08816628,0.0002164,53.2165,348.8038,44.3654,315.7511,-0.0001381,-2.484e-05,0.0,0 STARLINK-3349,1 50813U 22001L   22284.54582432 -.00002484  00000-0 -13810-3 0  9999,2 50813  53.2165 348.8038 0002164  44.3654 315.7511 15.08816628 42570,6917.9519999999975,95.439,541.314,538.32,0.0
50813.0,STARLINK-3349,PAYLOAD,2022-10-12 11:21:23,15.08839557,0.0002086999999999,53.2164,344.642,45.8256,314.2907,0.00035922,5.433e-05,0.0,0 STARLINK-3349,1 50813U 22001L   22285.47318496  .00005433  00000-0  35922-3 0  9992,2 50813  53.2164 344.6420 0002087  45.8256 314.2907 15.08839557 43969,6917.882,95.438,541.191,538.303,0.0
50813.0,STARLINK-3349,PAYLOAD,2022-10-12 12:56:46,15.0884234,0.0002091,53.2163,344.3443,45.8806,314.2357,0.00040947,6.235e-05,0.0,0 STARLINK-3349,1 50813U 22001L   22285.53942448  .00006235  00000-0  40947-3 0  9993,2 50813  53.2163 344.3443 0002091  45.8806 314.2357 15.08842340 42722,6917.873000000001,95.437,541.185,538.2919999999998,0.0
50813.0,STARLINK-3349,PAYLOAD,2022-10-13 03:15:15,15.08845072,0.0002104,53.216,341.6681,48.2281,311.889,0.0010602,0.00016628,0.0,0 STARLINK-3349,1 50813U 22001L   22286.13559184  .00016628  00000-0  10602-2 0  9992,2 50813  53.2160 341.6681 0002104  48.2281 311.8890 15.08845072 44061,6917.865,95.437,541.185,538.274,0.0
50813.0,STARLINK-3349,PAYLOAD,2022-10-13 11:12:10,15.08859406,0.0002201,53.2161,340.1828,42.4579,317.6583,0.00022509,3.298e-05,0.0,0 STARLINK-3349,1 50813U 22001L   22286.46678279  .00003298  00000-0  22509-3 0  9994,2 50813  53.2161 340.1828 0002201  42.4579 317.6583 15.08859406 42868,6917.821,95.436,541.2090000000002,538.163,0.0
50813.0,STARLINK-3349,PAYLOAD,2022-10-14 03:06:01,15.08847402,0.0002249,53.2157,337.2085,44.7666,315.3507,-0.00010521,-1.963e-05,0.0,0 STARLINK-3349,1 50813U 22001L   22287.12918132 -.00001963  00000-0 -10521-3 0  9993,2 50813  53.2157 337.2085 0002249  44.7666 315.3507 15.08847402 44214,6917.858,95.437,541.279,538.1669999999998,0.0
50813.0,STARLINK-3349,PAYLOAD,2022-10-14 11:02:57,15.088443099999996,0.0002025,53.2171,335.7209,55.0336,305.0846,2.596e-05,1.25e-06,0.0,0 STARLINK-3349,1 50813U 22001L   22287.46038768  .00000125  00000-0  25960-4 0  9999,2 50813  53.2171 335.7209 0002025  55.0336 305.0846 15.08844310 43016,6917.8669999999975,95.437,541.133,538.331,0.0
50813.0,STARLINK-3349,PAYLOAD,2022-10-14 20:35:15,15.08858404,0.0001996999999999,53.2177,333.9362,47.9707,312.1455,5.8631e-05,6.45e-06,0.0,0 STARLINK-3349,1 50813U 22001L   22287.85781409  .00000645  00000-0  58631-4 0  9997,2 50813  53.2177 333.9362 0001997  47.9707 312.1455 15.08858404 44320,6917.824000000001,95.436,541.071,538.308,0.0
50813.0,STARLINK-3349,PAYLOAD,2022-10-15 10:53:42,15.08857168,0.0001942,53.2167,331.2598,51.6813,308.4354,0.00011606,1.56e-05,0.0,0 STARLINK-3349,1 50813U 22001L   22288.45396915  .00001560  00000-0  11606-3 0  9995,2 50813  53.2167 331.2598 0001942  51.6813 308.4354 15.08857168 43164,6917.828,95.436,541.036,538.349,0.0
50813.0,STARLINK-3349,PAYLOAD,2022-10-16 09:09:07,15.08836028,0.0001794,53.2166,327.0968,40.0968,320.0156,-8.416e-05,-1.627e-05,0.0,0 STARLINK-3349,1 50813U 22001L   22289.38133366 -.00001627  00000-0 -84160-4 0  9999,2 50813  53.2166 327.0968 0001794  40.0968 320.0156 15.08836028 44551,6917.893,95.438,540.999,538.516,0.0
50813.0,STARLINK-3349,PAYLOAD,2022-10-16 12:19:53,15.0883302,0.0001735,53.2166,326.5023,34.2306,325.8798,-0.00012053,-2.205e-05,0.0,0 STARLINK-3349,1 50813U 22001L   22289.51381539 -.00002205  00000-0 -12053-3 0  9995,2 50813  53.2166 326.5023 0001735  34.2306 325.8798 15.08833020 43321,6917.901999999999,95.438,540.967,538.566,0.0
50813.0,STARLINK-3349,PAYLOAD,2022-10-17 12:10:40,15.08848911,0.0002039,53.2156,322.0407,45.4811,314.6348,0.00035273,5.331e-05,0.0,0 STARLINK-3349,1 50813U 22001L   22290.50741565  .00005331  00000-0  35273-3 0  9995,2 50813  53.2156 322.0407 0002039  45.4811 314.6348 15.08848911 44727,6917.853,95.437,541.129,538.308,0.0
50813.0,STARLINK-3349,PAYLOAD,2022-10-18 04:04:32,15.08840659,0.0001818,53.2155,319.0665,42.3672,317.746,0.00030114,4.508e-05,0.0,0 STARLINK-3349,1 50813U 22001L   22291.16981626  .00004508  00000-0  30114-3 0  9996,2 50813  53.2155 319.0665 0001818  42.3672 317.7460 15.08840659 44824,6917.878000000002,95.438,541.001,538.486,0.0
50813.0,STARLINK-3349,PAYLOAD,2022-10-18 12:01:28,15.08827886,0.0001873,53.2172,317.5818,42.5346,317.5791,0.00020602,2.991e-05,0.0,0 STARLINK-3349,1 50813U 22001L   22291.50101940  .00002991  00000-0  20602-3 0  9992,2 50813  53.2172 317.5818 0001873  42.5346 317.5791 15.08827886 43626,6917.917,95.438,541.078,538.487,0.0
50813.0,STARLINK-3349,PAYLOAD,2022-10-18 18:23:01,15.08825262,0.0001885,53.2169,316.392,42.2584,317.8553,0.00016249,2.298e-05,0.0,0 STARLINK-3349,1 50813U 22001L   22291.76598431  .00002298  00000-0  16249-3 0  9997,2 50813  53.2169 316.3920 0001885  42.2584 317.8553 15.08825262 44915,6917.925,95.438,541.094,538.486,0.0
50813.0,STARLINK-3349,PAYLOAD,2022-10-19 03:55:19,15.08840701,0.0001916,53.2166,314.6071,44.2591,315.8554,1.304e-05,-8.1e-07,0.0,0 STARLINK-3349,1 50813U 22001L   22292.16342204 -.00000081  00000-0  13040-4 0  9993,2 50813  53.2166 314.6071 0001916  44.2591 315.8554 15.08840701 44975,6917.878000000002,95.438,541.069,538.418,0.0
50813.0,STARLINK-3349,PAYLOAD,2022-10-19 10:16:52,15.08835961,0.000192,53.2162,313.4172,43.1052,317.009,-4.8465e-05,-1.059e-05,0.0,0 STARLINK-3349,1 50813U 22001L   22292.42838705 -.00001059  00000-0 -48465-4 0  9994,2 50813  53.2162 313.4172 0001920  43.1052 317.0090 15.08835961 45012,6917.893,95.438,541.086,538.429,0.0
50813.0,STARLINK-3349,PAYLOAD,2022-10-20 05:21:29,15.08846231,0.0001883,53.2161,309.8488,45.6587,314.4559,5.6183e-05,6.06e-06,0.0,0 STARLINK-3349,1 50813U 22001L   22293.22325715  .00000606  00000-0  56183-4 0  9996,2 50813  53.2161 309.8488 0001883  45.6587 314.4559 15.08846231 45134,6917.861,95.437,541.029,538.424,0.0
